     2.100          NAVIGATION                              RINEX VERSION / TYPE
fic2rin                                 11/25/2014 00:27:40 PGM / RUN BY / DATE
                                                            END OF HEADER
 3 14 11 24 22  0  0.0  .176709145308D-04  .370619090972D-10  .000000000000D+00
     .250000000000D+02 -.169687500000D+02  .481555773017D-08 -.435621539946D+00
    -.927597284317D-06  .202014343813D-04  .644661486149D-05  .518122164536D+04
     .165600000000D+06  .111758708954D-07  .237146265312D+01  .167638063431D-07
     .959409413310D+00  .251281250000D+03  .158020597826D+01 -.784032658107D-08
    -.385730352932D-09  .100000000000D+01  .182000000000D+04  .000000000000D+00
     .240000000000D+01  .630000000000D+02  .558793544769D-08  .250000000000D+02
     .158406000000D+06  .400000000000D+01
 4 14 11 24 22  0  0.0 -.355998054147D-05 -.454747350886D-12  .000000000000D+00
     .520000000000D+02  .193125000000D+02  .534022244170D-08  .723220909054D-02
     .100024044514D-05  .109175030375D-01  .788643956184D-05  .515374448967D+04
     .165600000000D+06 -.316649675369D-07  .131281062404D+01  .130385160446D-06
     .938661036371D+00  .220437500000D+03  .104547669335D+01 -.848499629130D-08
     .581452791271D-09  .100000000000D+01  .182000000000D+04  .000000000000D+00
     .240000000000D+01  .000000000000D+00 -.651925802231D-08  .520000000000D+02
     .158406000000D+06  .400000000000D+01
 5 14 11 24 22  0  0.0 -.314071308821D-03  .454747350886D-11  .000000000000D+00
     .660000000000D+02 -.238750000000D+02  .527629120728D-08 -.312921512755D+01
    -.122934579849D-05  .400402955711D-02  .644102692604D-05  .515371770096D+04
     .165600000000D+06 -.104308128357D-06  .236705440843D+01 -.391155481339D-07
     .946709106097D+00  .249656250000D+03  .400400660740D+00 -.825570102594D-08
    -.421446126351D-09  .100000000000D+01  .182000000000D+04  .000000000000D+00
     .240000000000D+01  .000000000000D+00 -.107102096081D-07  .660000000000D+02
     .158406000000D+06  .400000000000D+01
 6 14 11 24 22  0  0.0  .153984874487D-04  .602540239925D-11  .000000000000D+00
     .860000000000D+02  .274062500000D+02  .471019619858D-08  .311051703322D+01
     .135041773319D-05  .588078284636D-03  .777468085289D-05  .515364065742D+04
     .165600000000D+06 -.428408384323D-07  .132232379598D+01  .204890966415D-07
     .960966432132D+00  .225187500000D+03  .222933502542D+01 -.807212195057D-08
     .592524681031D-09  .100000000000D+01  .182000000000D+04  .000000000000D+00
     .240000000000D+01  .000000000000D+00  .465661287308D-08  .860000000000D+02
     .158406000000D+06  .400000000000D+01
 7 14 11 24 22  0  0.0  .415927264839D-03  .375166564481D-11  .000000000000D+00
     .610000000000D+02  .106812500000D+03  .440089760076D-08 -.393225666376D+00
     .549107789993D-05  .799427740276D-02  .404752790928D-05  .515360780525D+04
     .165600000000D+06  .800937414169D-07 -.179203001055D+01  .763684511185D-07
     .971799963712D+00  .306312500000D+03 -.275311838568D+01 -.830356016232D-08
     .155720772109D-09  .100000000000D+01  .182000000000D+04  .000000000000D+00
     .240000000000D+01  .000000000000D+00 -.111758708954D-07  .610000000000D+02
     .158406000000D+06  .400000000000D+01
 8 14 11 24 22  0  0.0  .164466910064D-04  .113686837722D-12  .000000000000D+00
     .940000000000D+02  .967187500000D+02  .403159650361D-08  .391891932741D+00
     .514648854733D-05  .147367379395D-01  .340305268764D-05  .515218685913D+04
     .165600000000D+06  .745058059692D-07 -.168853982676D+01  .195577740669D-06
     .995238140829D+00  .331406250000D+03 -.268561543658D+01 -.825462955274D-08
     .134648465792D-09  .100000000000D+01  .182000000000D+04  .000000000000D+00
     .240000000000D+01  .630000000000D+02 -.465661287308D-08  .940000000000D+02
     .158406000000D+06  .400000000000D+01
10 14 11 24 22  0  0.0 -.151279848069D-03 -.159161572810D-11  .000000000000D+00
     .950000000000D+02 -.278125000000D+02  .533807949529D-08 -.283314651167D+01
    -.165402889252D-05  .143529820489D-01  .640563666821D-05  .515363141441D+04
     .165600000000D+06  .149011611938D-06  .238324802357D+01 -.296160578728D-06
     .941517429272D+00  .244812500000D+03  .902997342104D+00 -.823177145775D-08
    -.350728894981D-09  .100000000000D+01  .182000000000D+04  .000000000000D+00
     .340000000000D+01  .000000000000D+00 -.325962901115D-08  .950000000000D+02
     .158406000000D+06  .400000000000D+01
12 14 11 24 22  0  0.0  .248694326729D-03  .284217094304D-11  .000000000000D+00
     .410000000000D+02 -.988125000000D+02  .410159941951D-08 -.811477640569D+00
    -.517629086971D-05  .499691348523D-02  .313855707645D-05  .515377746391D+04
     .165600000000D+06  .707805156708D-07 -.725867273731D+00  .186264514923D-07
     .988850670377D+00  .333343750000D+03  .502409695563D+00 -.814891086342D-08
    -.320727645308D-09  .100000000000D+01  .182000000000D+04  .000000000000D+00
     .240000000000D+01  .000000000000D+00 -.121071934700D-07  .410000000000D+02
     .158406000000D+06  .400000000000D+01
13 14 11 24 22  0  0.0 -.635874457657D-04 -.352429196937D-11  .000000000000D+00
     .640000000000D+02  .804062500000D+02  .390623413890D-08  .926754682595D+00
     .411830842495D-05  .585892796516D-02  .112541019917D-04  .515590691185D+04
     .165600000000D+06  .316649675369D-07 -.275494526461D+01 -.949949026108D-07
     .976241621456D+00  .169062500000D+03  .221653311854D+01 -.766674792225D-08
    -.203222750758D-09  .100000000000D+01  .182000000000D+04  .000000000000D+00
     .240000000000D+01  .000000000000D+00 -.111758708954D-07  .640000000000D+02
     .158406000000D+06  .400000000000D+01
14 14 11 24 22  0  0.0  .112578272820D-03 -.363797880709D-11  .000000000000D+00
     .390000000000D+02  .808437500000D+02  .401445293236D-08  .222031236698D+01
     .405125319958D-05  .782397645526D-02  .121854245663D-04  .515375920868D+04
     .165600000000D+06  .372529029846D-07 -.278821643389D+01 -.188127160072D-06
     .968766036925D+00  .145375000000D+03 -.196443469114D+01 -.756960101855D-08
    -.331799535068D-09  .100000000000D+01  .182000000000D+04  .000000000000D+00
     .240000000000D+01  .000000000000D+00 -.931322574615D-08  .390000000000D+02
     .158406000000D+06  .400000000000D+01
15 14 11 24 22  0  0.0 -.216506421566D-03 -.216004991671D-11  .000000000000D+00
     .126000000000D+03  .665625000000D+02  .496199240119D-08  .156146412221D+01
     .369176268578D-05  .689374888316D-02  .114794820547D-04  .515381371307D+04
     .165600000000D+06  .279396772385D-07 -.290616436642D+01  .145286321640D-06
     .935397722567D+00  .145687500000D+03  .311361614764D+00 -.814391065514D-08
    -.445375694543D-09  .100000000000D+01  .182000000000D+04  .000000000000D+00
     .240000000000D+01  .000000000000D+00 -.102445483208D-07  .126000000000D+03
     .158406000000D+06  .400000000000D+01
16 14 11 24 22  0  0.0 -.178258400410D-03  .284217094304D-11  .000000000000D+00
     .760000000000D+02 -.955625000000D+02  .401159567049D-08 -.296498367517D+01
    -.495836138725D-05  .774639414158D-02  .256299972534D-05  .515370068359D+04
     .165600000000D+06 -.763684511185D-07 -.707243340575D+00  .111758708954D-07
     .989435757148D+00  .347593750000D+03  .231671905608D+00 -.805747848346D-08
    -.268582616115D-09  .100000000000D+01  .182000000000D+04  .000000000000D+00
     .240000000000D+01  .000000000000D+00 -.102445483208D-07  .760000000000D+02
     .158406000000D+06  .400000000000D+01
17 14 11 24 22  0  0.0 -.139690004289D-03 -.250111042988D-11  .000000000000D+00
     .380000000000D+02 -.878437500000D+02  .378265756287D-08  .241042431041D+01
    -.454485416412D-05  .975819316227D-02  .113286077976D-04  .515368675041D+04
     .165600000000D+06  .540167093277D-07  .321552103147D+00 -.175088644028D-06
     .970819812988D+00  .164625000000D+03 -.208181396693D+01 -.750245536452D-08
     .251081887140D-09  .100000000000D+01  .182000000000D+04  .000000000000D+00
     .240000000000D+01  .000000000000D+00 -.107102096081D-07  .380000000000D+02
     .158406000000D+06  .400000000000D+01
18 14 11 24 22  0  0.0  .360589474440D-03  .261479726760D-11  .000000000000D+00
     .290000000000D+02 -.232187500000D+02  .567952228919D-08 -.239362858890D+01
    -.124797224998D-05  .154870967381D-01  .587478280067D-05  .515373615837D+04
     .165600000000D+06  .229105353355D-06  .235787935781D+01  .931322574615D-08
     .925261784936D+00  .242656250000D+03 -.200294443401D+01 -.831820362943D-08
    -.258582199558D-09  .100000000000D+01  .182000000000D+04  .000000000000D+00
     .240000000000D+01  .000000000000D+00 -.111758708954D-07  .290000000000D+02
     .158406000000D+06  .400000000000D+01
19 14 11 24 22  0  0.0 -.489586498588D-03 -.170530256582D-11  .000000000000D+00
     .210000000000D+02 -.939687500000D+02  .401766735197D-08  .155517537825D+01
    -.478513538837D-05  .106941096019D-01  .117495656013D-04  .515367872620D+04
     .165600000000D+06 -.121071934700D-06  .371744763930D+00  .115483999252D-06
     .967878148056D+00  .158875000000D+03  .512865751854D+00 -.778032408173D-08
     .143577409147D-09  .100000000000D+01  .182000000000D+04  .000000000000D+00
     .240000000000D+01  .000000000000D+00 -.149011611938D-07  .210000000000D+02
     .158406000000D+06  .400000000000D+01
20 14 11 24 22  0  0.0  .260232016444D-03  .420641299570D-11  .000000000000D+00
     .710000000000D+02 -.173750000000D+02  .582131390966D-08 -.187173351795D+01
    -.817701220512D-06  .626502034720D-02  .528432428837D-05  .515367517471D+04
     .165600000000D+06  .108033418655D-06  .230500212240D+01  .577419996262D-07
     .926331429674D+00  .259000000000D+03  .133640969581D+01 -.855785646907D-08
    -.246795994329D-09  .100000000000D+01  .182000000000D+04  .000000000000D+00
     .240000000000D+01  .000000000000D+00 -.838190317154D-08  .710000000000D+02
     .158406000000D+06  .400000000000D+01
